start=new Date('2022-12-15T00:00:00.000Z').valueOf();
sats=[{"TLE_LINE1":"1 46749U 20074L   22348.38398138  .00001988  00000-0  15230-3 0  9995","APOAPSIS":"548.238","MEAN_ELEMENT_THEORY":"SGP4","TLE_LINE2":"2 46749  53.0573 224.7150 0001487  65.0769 295.0374 15.06401812118625","FILE":"3698874","ELEMENT_SET_NO":"999","ECCENTRICITY":"0.00014870","RCS_SIZE":"LARGE","MEAN_MOTION_DOT":"0.00001988","CLASSIFICATION_TYPE":"U","REF_FRAME":"TEME","TIME_SYSTEM":"UTC","EPOCH":"2022-12-14T09:12:55.991232","EPHEMERIS_TYPE":"0","MEAN_MOTION_DDOT":"0.0000000000000","PERIOD":"95.592","NORAD_CAT_ID":"46749","CENTER_NAME":"EARTH","RA_OF_ASC_NODE":"224.7150","SITE":"AFETR","OBJECT_TYPE":"PAYLOAD","REV_AT_EPOCH":"11862","MEAN_MOTION":"15.06401812","ARG_OF_PERICENTER":"65.0769","BSTAR":"0.00015230000000","OBJECT_NAME":"STARLINK-1911","MEAN_ANOMALY":"295.0374","LAUNCH_DATE":"2020-10-24","OBJECT_ID":"2020-074L","GP_ID":"220364293","DECAY_DATE":null,"COUNTRY_CODE":"US","SEMIMAJOR_AXIS":"6925.343","PERIAPSIS":"546.178","INCLINATION":"53.0573"},{"TLE_LINE2":"2 46751  53.0536 222.6516 0001571  80.9831 279.1335 15.06384699118690","FILE":"3699647","TLE_LINE1":"1 46751U 20074N   22348.84474456 -.00000781  00000-0 -33545-4 0  9999","APOAPSIS":"548.348","MEAN_ELEMENT_THEORY":"SGP4","ELEMENT_SET_NO":"999","CLASSIFICATION_TYPE":"U","REF_FRAME":"TEME","TIME_SYSTEM":"UTC","ECCENTRICITY":"0.00015710","RCS_SIZE":"LARGE","MEAN_MOTION_DOT":"-0.00000781","EPOCH":"2022-12-14T20:16:25.929984","EPHEMERIS_TYPE":"0","MEAN_MOTION_DDOT":"0.0000000000000","PERIOD":"95.593","NORAD_CAT_ID":"46751","RA_OF_ASC_NODE":"222.6516","CENTER_NAME":"EARTH","SITE":"AFETR","OBJECT_TYPE":"PAYLOAD","OBJECT_NAME":"STARLINK-1920","MEAN_ANOMALY":"279.1335","LAUNCH_DATE":"2020-10-24","OBJECT_ID":"2020-074N","REV_AT_EPOCH":"11869","ARG_OF_PERICENTER":"80.9831","MEAN_MOTION":"15.06384699","BSTAR":"-0.00003354500000","INCLINATION":"53.0536","PERIAPSIS":"546.172","GP_ID":"220405345","COUNTRY_CODE":"US","DECAY_DATE":null,"SEMIMAJOR_AXIS":"6925.395"},{"OBJECT_ID":"2020-074P","LAUNCH_DATE":"2020-10-24","OBJECT_NAME":"STARLINK-1921","MEAN_ANOMALY":"283.5128","BSTAR":"0.00013350000000","ARG_OF_PERICENTER":"76.6060","MEAN_MOTION":"15.06403553","REV_AT_EPOCH":"11868","PERIAPSIS":"545.971","INCLINATION":"53.0518","SEMIMAJOR_AXIS":"6925.338","DECAY_DATE":null,"COUNTRY_CODE":"US","GP_ID":"220406091","NORAD_CAT_ID":"46752","PERIOD":"95.592","MEAN_MOTION_DDOT":"0.0000000000000","OBJECT_TYPE":"PAYLOAD","SITE":"AFETR","CENTER_NAME":"EARTH","RA_OF_ASC_NODE":"222.8932","TIME_SYSTEM":"UTC","REF_FRAME":"TEME","CLASSIFICATION_TYPE":"U","MEAN_MOTION_DOT":"0.00001708","RCS_SIZE":"LARGE","ECCENTRICITY":"0.00017790","EPHEMERIS_TYPE":"0","EPOCH":"2022-12-14T18:56:46.709664","TLE_LINE2":"2 46752  53.0518 222.8932 0001779  76.6060 283.5128 15.06403553118680","FILE":"3699647","MEAN_ELEMENT_THEORY":"SGP4","APOAPSIS":"548.435","TLE_LINE1":"1 46752U 20074P   22348.78942951  .00001708  00000-0  13350-3 0  9992","ELEMENT_SET_NO":"999"},{"OBJECT_NAME":"STARLINK-1922","MEAN_ANOMALY":"304.0221","LAUNCH_DATE":"2020-10-24","OBJECT_ID":"2020-074Q","REV_AT_EPOCH":"11868","BSTAR":"0.00014802000000","ARG_OF_PERICENTER":"56.0946","MEAN_MOTION":"15.06394923","PERIAPSIS":"545.931","INCLINATION":"53.0535","GP_ID":"220406341","SEMIMAJOR_AXIS":"6925.364","COUNTRY_CODE":"US","DECAY_DATE":null,"NORAD_CAT_ID":"46753","MEAN_MOTION_DDOT":"0.0000000000000","PERIOD":"95.592","SITE":"AFETR","CENTER_NAME":"EARTH","RA_OF_ASC_NODE":"223.0431","OBJECT_TYPE":"PAYLOAD","REF_FRAME":"TEME","CLASSIFICATION_TYPE":"U","TIME_SYSTEM":"UTC","ECCENTRICITY":"0.00018740","MEAN_MOTION_DOT":"0.00001923","RCS_SIZE":"LARGE","EPHEMERIS_TYPE":"0","EPOCH":"2022-12-14T18:09:01.157760","FILE":"3699647","TLE_LINE2":"2 46753  53.0535 223.0431 0001874  56.0946 304.0221 15.06394923118681","TLE_LINE1":"1 46753U 20074Q   22348.75626340  .00001923  00000-0  14802-3 0  9993","MEAN_ELEMENT_THEORY":"SGP4","APOAPSIS":"548.527","ELEMENT_SET_NO":"999"},{"ARG_OF_PERICENTER":"80.9482","MEAN_MOTION":"15.06406140","BSTAR":"0.00001742300000","REV_AT_EPOCH":"11862","OBJECT_ID":"2020-074R","LAUNCH_DATE":"2020-10-24","OBJECT_NAME":"STARLINK-1923","MEAN_ANOMALY":"279.1692","DECAY_DATE":null,"COUNTRY_CODE":"US","SEMIMAJOR_AXIS":"6925.330","GP_ID":"220363795","INCLINATION":"53.0541","PERIAPSIS":"546.065","MEAN_MOTION_DDOT":"0.0000000000000","PERIOD":"95.592","NORAD_CAT_ID":"46754","OBJECT_TYPE":"PAYLOAD","CENTER_NAME":"EARTH","RA_OF_ASC_NODE":"224.7893","SITE":"AFETR","RCS_SIZE":"LARGE","MEAN_MOTION_DOT":"-0.00000022","ECCENTRICITY":"0.00016320","TIME_SYSTEM":"UTC","CLASSIFICATION_TYPE":"U","REF_FRAME":"TEME","EPOCH":"2022-12-14T08:46:23.564928","EPHEMERIS_TYPE":"0","MEAN_ELEMENT_THEORY":"SGP4","APOAPSIS":"548.325","TLE_LINE1":"1 46754U 20074R   22348.36555052 -.00000022  00000-0  17423-4 0  9995","TLE_LINE2":"2 46754  53.0541 224.7893 0001632  80.9482 279.1692 15.06406140118625","FILE":"3698874","ELEMENT_SET_NO":"999"},{"SEMIMAJOR_AXIS":"6925.337","DECAY_DATE":null,"COUNTRY_CODE":"US","GP_ID":"220405845","PERIAPSIS":"545.803","INCLINATION":"53.0533","BSTAR":"0.00010924000000","MEAN_MOTION":"15.06403792","ARG_OF_PERICENTER":"43.1429","REV_AT_EPOCH":"11862","LAUNCH_DATE":"2020-10-24","OBJECT_ID":"2020-074S","OBJECT_NAME":"STARLINK-1924","MEAN_ANOMALY":"316.9718","OBJECT_TYPE":"PAYLOAD","SITE":"AFETR","RA_OF_ASC_NODE":"227.6793","CENTER_NAME":"EARTH","NORAD_CAT_ID":"46755","PERIOD":"95.592","MEAN_MOTION_DDOT":"0.0000000000000","EPHEMERIS_TYPE":"0","EPOCH":"2022-12-14T20:02:27.614976","MEAN_MOTION_DOT":"0.00001346","RCS_SIZE":"LARGE","ECCENTRICITY":"0.00020200","TIME_SYSTEM":"UTC","REF_FRAME":"TEME","CLASSIFICATION_TYPE":"U","ELEMENT_SET_NO":"999","APOAPSIS":"548.601","MEAN_ELEMENT_THEORY":"SGP4","TLE_LINE1":"1 46755U 20074S   22348.83504184  .00001346  00000-0  10924-3 0  9995","TLE_LINE2":"2 46755  53.0533 227.6793 0002020  43.1429 316.9718 15.06403792118621","FILE":"3699647"},{"CLASSIFICATION_TYPE":"U","REF_FRAME":"TEME","TIME_SYSTEM":"UTC","ECCENTRICITY":"0.00013410","RCS_SIZE":"LARGE","MEAN_MOTION_DOT":"0.00001283","EPOCH":"2022-12-14T09:36:13.387680","EPHEMERIS_TYPE":"0","TLE_LINE2":"2 46756  53.0552 230.0268 0001341  73.5357 286.5779 15.06404613118576","FILE":"3699353","TLE_LINE1":"1 46756U 20074T   22348.40015495  .00001283  00000-0  10500-3 0  9991","MEAN_ELEMENT_THEORY":"SGP4","APOAPSIS":"548.128","ELEMENT_SET_NO":"999","OBJECT_NAME":"STARLINK-1925","MEAN_ANOMALY":"286.5779","LAUNCH_DATE":"2020-10-24","OBJECT_ID":"2020-074T","REV_AT_EPOCH":"11857","MEAN_MOTION":"15.06404613","ARG_OF_PERICENTER":"73.5357","BSTAR":"0.00010500000000","PERIAPSIS":"546.271","INCLINATION":"53.0552","GP_ID":"220379564","COUNTRY_CODE":"US","DECAY_DATE":null,"SEMIMAJOR_AXIS":"6925.334","MEAN_MOTION_DDOT":"0.0000000000000","PERIOD":"95.592","NORAD_CAT_ID":"46756","CENTER_NAME":"EARTH","RA_OF_ASC_NODE":"230.0268","SITE":"AFETR","OBJECT_TYPE":"PAYLOAD"},{"PERIOD":"95.592","MEAN_MOTION_DDOT":"0.0000000000000","NORAD_CAT_ID":"46757","CENTER_NAME":"EARTH","RA_OF_ASC_NODE":"228.0114","SITE":"AFETR","OBJECT_TYPE":"PAYLOAD","REV_AT_EPOCH":"11861","MEAN_MOTION":"15.06396764","ARG_OF_PERICENTER":"76.9777","BSTAR":"0.00011303000000","OBJECT_NAME":"STARLINK-1926","MEAN_ANOMALY":"283.1382","OBJECT_ID":"2020-074U","LAUNCH_DATE":"2020-10-24","GP_ID":"220406841","DECAY_DATE":null,"COUNTRY_CODE":"US","SEMIMAJOR_AXIS":"6925.358","INCLINATION":"53.0518","PERIAPSIS":"546.167","TLE_LINE1":"1 46757U 20074U   22348.81295744  .00001402  00000-0  11303-3 0  9999","APOAPSIS":"548.280","MEAN_ELEMENT_THEORY":"SGP4","TLE_LINE2":"2 46757  53.0518 228.0114 0001526  76.9777 283.1382 15.06396764118619","FILE":"3699647","ELEMENT_SET_NO":"999","ECCENTRICITY":"0.00015260","RCS_SIZE":"LARGE","MEAN_MOTION_DOT":"0.00001402","CLASSIFICATION_TYPE":"U","REF_FRAME":"TEME","TIME_SYSTEM":"UTC","EPOCH":"2022-12-14T19:30:39.522816","EPHEMERIS_TYPE":"0"},{"OBJECT_TYPE":"PAYLOAD","CENTER_NAME":"EARTH","RA_OF_ASC_NODE":"227.7518","SITE":"AFETR","PERIOD":"95.592","MEAN_MOTION_DDOT":"0.0000000000000","NORAD_CAT_ID":"46758","COUNTRY_CODE":"US","DECAY_DATE":null,"SEMIMAJOR_AXIS":"6925.339","GP_ID":"220406587","PERIAPSIS":"546.042","INCLINATION":"53.0545","MEAN_MOTION":"15.06402977","ARG_OF_PERICENTER":"54.6421","BSTAR":"0.00002848100000","REV_AT_EPOCH":"11862","LAUNCH_DATE":"2020-10-24","OBJECT_ID":"2020-074V","OBJECT_NAME":"STARLINK-1928","MEAN_ANOMALY":"305.4725","ELEMENT_SET_NO":"999","APOAPSIS":"548.367","MEAN_ELEMENT_THEORY":"SGP4","TLE_LINE1":"1 46758U 20074V   22348.81661527  .00000143  00000-0  28481-4 0  9993","TLE_LINE2":"2 46758  53.0545 227.7518 0001678  54.6421 305.4725 15.06402977118625","FILE":"3699647","EPOCH":"2022-12-14T19:35:55.559328","EPHEMERIS_TYPE":"0","RCS_SIZE":"LARGE","MEAN_MOTION_DOT":"0.00000143","ECCENTRICITY":"0.00016780","TIME_SYSTEM":"UTC","CLASSIFICATION_TYPE":"U","REF_FRAME":"TEME"},{"EPOCH":"2022-12-13T19:36:12.163680","EPHEMERIS_TYPE":"0","CLASSIFICATION_TYPE":"U","REF_FRAME":"TEME","TIME_SYSTEM":"UTC","ECCENTRICITY":"0.00015050","RCS_SIZE":"LARGE","MEAN_MOTION_DOT":"0.00001211","ELEMENT_SET_NO":"999","FILE":"3698874","TLE_LINE2":"2 46759  53.0531 242.2670 0001505  65.5148 294.5998 15.06399310118321","TLE_LINE1":"1 46759U 20074W   22347.81680745  .00001211  00000-0  10019-3 0  9990","APOAPSIS":"548.258","MEAN_ELEMENT_THEORY":"SGP4","PERIAPSIS":"546.173","INCLINATION":"53.0531","GP_ID":"220362561","COUNTRY_CODE":"US","DECAY_DATE":null,"SEMIMAJOR_AXIS":"6925.351","OBJECT_NAME":"STARLINK-1833","MEAN_ANOMALY":"294.5998","LAUNCH_DATE":"2020-10-24","OBJECT_ID":"2020-074W","REV_AT_EPOCH":"11832","MEAN_MOTION":"15.06399310","ARG_OF_PERICENTER":"65.5148","BSTAR":"0.00010019000000","RA_OF_ASC_NODE":"242.2670","CENTER_NAME":"EARTH","SITE":"AFETR","OBJECT_TYPE":"PAYLOAD","MEAN_MOTION_DDOT":"0.0000000000000","PERIOD":"95.592","NORAD_CAT_ID":"46759"}];
